CCSDS_OMM_VERS = 2.0
CREATION_DATE  = 
ORIGINATOR     = 

OBJECT_NAME    = STARLINK-35877
OBJECT_ID      = 2025-294V
CENTER_NAME    = EARTH
REF_FRAME      = TEME
TIME_SYSTEM    = UTC
MEAN_ELEMENT_THEORY = SGP/SGP4

EPOCH          = 2025-12-23T06:00:00.999648
MEAN_MOTION    = 15.79354964
ECCENTRICITY   = .00012797
INCLINATION    = 43.0003
RA_OF_ASC_NODE = 117.7373
ARG_OF_PERICENTER = 277.5383
MEAN_ANOMALY   = 203.7133

EPHEMERIS_TYPE = 0
CLASSIFICATION_TYPE = U
NORAD_CAT_ID   = 67049
ELEMENT_SET_NO = 999
REV_AT_EPOCH   = 199
BSTAR          = -.11818619E-1
MEAN_MOTION_DOT = -.1916153E-1
MEAN_MOTION_DDOT = 0

CCSDS_OMM_VERS = 2.0
CREATION_DATE  = 
ORIGINATOR     = 

OBJECT_NAME    = STARLINK-36078
OBJECT_ID      = 2025-294W
CENTER_NAME    = EARTH
REF_FRAME      = TEME
TIME_SYSTEM    = UTC
MEAN_ELEMENT_THEORY = SGP/SGP4

EPOCH          = 2025-12-23T06:00:00.999648
MEAN_MOTION    = 15.79333787
ECCENTRICITY   = .00013238
INCLINATION    = 43.0003
RA_OF_ASC_NODE = 117.7312
ARG_OF_PERICENTER = 275.9054
MEAN_ANOMALY   = 207.7285

EPHEMERIS_TYPE = 0
CLASSIFICATION_TYPE = U
NORAD_CAT_ID   = 67050
ELEMENT_SET_NO = 999
REV_AT_EPOCH   = 191
BSTAR          = -.11811925E-1
MEAN_MOTION_DOT = -.1913633E-1
MEAN_MOTION_DDOT = 0

CCSDS_OMM_VERS = 2.0
CREATION_DATE  = 
ORIGINATOR     = 

OBJECT_NAME    = STARLINK-35706
OBJECT_ID      = 2025-294X
CENTER_NAME    = EARTH
REF_FRAME      = TEME
TIME_SYSTEM    = UTC
MEAN_ELEMENT_THEORY = SGP/SGP4

EPOCH          = 2025-12-23T06:00:00.999648
MEAN_MOTION    = 15.79315994
ECCENTRICITY   = .00014561
INCLINATION    = 43.0003
RA_OF_ASC_NODE = 117.7252
ARG_OF_PERICENTER = 276.3236
MEAN_ANOMALY   = 209.6730

EPHEMERIS_TYPE = 0
CLASSIFICATION_TYPE = U
NORAD_CAT_ID   = 67051
ELEMENT_SET_NO = 999
REV_AT_EPOCH   = 199
BSTAR          = -.11821932E-1
MEAN_MOTION_DOT = -.1913804E-1
MEAN_MOTION_DDOT = 0

CCSDS_OMM_VERS = 2.0
CREATION_DATE  = 
ORIGINATOR     = 

OBJECT_NAME    = STARLINK-35720
OBJECT_ID      = 2025-294Y
CENTER_NAME    = EARTH
REF_FRAME      = TEME
TIME_SYSTEM    = UTC
MEAN_ELEMENT_THEORY = SGP/SGP4

EPOCH          = 2025-12-23T06:00:00.999648
MEAN_MOTION    = 15.79314400
ECCENTRICITY   = .00015254
INCLINATION    = 43.0002
RA_OF_ASC_NODE = 117.7202
ARG_OF_PERICENTER = 274.5875
MEAN_ANOMALY   = 213.4012

EPHEMERIS_TYPE = 0
CLASSIFICATION_TYPE = U
NORAD_CAT_ID   = 67052
ELEMENT_SET_NO = 999
REV_AT_EPOCH   = 198
BSTAR          = -.11821261E-1
MEAN_MOTION_DOT = -.1913655E-1
MEAN_MOTION_DDOT = 0

CCSDS_OMM_VERS = 2.0
CREATION_DATE  = 
ORIGINATOR     = 

OBJECT_NAME    = STARLINK-35739
OBJECT_ID      = 2025-294Z
CENTER_NAME    = EARTH
REF_FRAME      = TEME
TIME_SYSTEM    = UTC
MEAN_ELEMENT_THEORY = SGP/SGP4

EPOCH          = 2025-12-23T06:00:00.999648
MEAN_MOTION    = 15.79300975
ECCENTRICITY   = .00015101
INCLINATION    = 43.0004
RA_OF_ASC_NODE = 117.7146
ARG_OF_PERICENTER = 273.5382
MEAN_ANOMALY   = 216.6710

EPHEMERIS_TYPE = 0
CLASSIFICATION_TYPE = U
NORAD_CAT_ID   = 67053
ELEMENT_SET_NO = 999
REV_AT_EPOCH   = 164
BSTAR          = -.11825889E-1
MEAN_MOTION_DOT = -.1913262E-1
MEAN_MOTION_DDOT = 0

CCSDS_OMM_VERS = 2.0
CREATION_DATE  = 
ORIGINATOR     = 

OBJECT_NAME    = STARLINK-35754
OBJECT_ID      = 2025-294AA
CENTER_NAME    = EARTH
REF_FRAME      = TEME
TIME_SYSTEM    = UTC
MEAN_ELEMENT_THEORY = SGP/SGP4

EPOCH          = 2025-12-23T06:00:00.999648
MEAN_MOTION    = 15.79286778
ECCENTRICITY   = .00012454
INCLINATION    = 43.0002
RA_OF_ASC_NODE = 117.7086
ARG_OF_PERICENTER = 276.9866
MEAN_ANOMALY   = 215.6263

EPHEMERIS_TYPE = 0
CLASSIFICATION_TYPE = U
NORAD_CAT_ID   = 67054
ELEMENT_SET_NO = 999
REV_AT_EPOCH   = 180
BSTAR          = -.11890242E-1
MEAN_MOTION_DOT = -.1920933E-1
MEAN_MOTION_DDOT = 0

CCSDS_OMM_VERS = 2.0
CREATION_DATE  = 
ORIGINATOR     = 

OBJECT_NAME    = STARLINK-35790
OBJECT_ID      = 2025-294AB
CENTER_NAME    = EARTH
REF_FRAME      = TEME
TIME_SYSTEM    = UTC
MEAN_ELEMENT_THEORY = SGP/SGP4

EPOCH          = 2025-12-23T06:00:00.999648
MEAN_MOTION    = 15.79269159
ECCENTRICITY   = .00012325
INCLINATION    = 43.0001
RA_OF_ASC_NODE = 117.7022
ARG_OF_PERICENTER = 274.0895
MEAN_ANOMALY   = 220.8474

EPHEMERIS_TYPE = 0
CLASSIFICATION_TYPE = U
NORAD_CAT_ID   = 67055
ELEMENT_SET_NO = 999
REV_AT_EPOCH   = 199
BSTAR          = -.11893974E-1
MEAN_MOTION_DOT = -.1920092E-1
MEAN_MOTION_DDOT = 0

CCSDS_OMM_VERS = 2.0
CREATION_DATE  = 
ORIGINATOR     = 

OBJECT_NAME    = STARLINK-36143
OBJECT_ID      = 2025-294AC
CENTER_NAME    = EARTH
REF_FRAME      = TEME
TIME_SYSTEM    = UTC
MEAN_ELEMENT_THEORY = SGP/SGP4

EPOCH          = 2025-12-23T06:00:00.999648
MEAN_MOTION    = 15.79252669
ECCENTRICITY   = .00011518
INCLINATION    = 43.0001
RA_OF_ASC_NODE = 117.6864
ARG_OF_PERICENTER = 273.9863
MEAN_ANOMALY   = 227.1137

EPHEMERIS_TYPE = 0
CLASSIFICATION_TYPE = U
NORAD_CAT_ID   = 67056
ELEMENT_SET_NO = 999
REV_AT_EPOCH   = 199
BSTAR          = -.11897246E-1
MEAN_MOTION_DOT = -.1919209E-1
MEAN_MOTION_DDOT = 0

CCSDS_OMM_VERS = 2.0
CREATION_DATE  = 
ORIGINATOR     = 

OBJECT_NAME    = STARLINK-36141
OBJECT_ID      = 2025-294AD
CENTER_NAME    = EARTH
REF_FRAME      = TEME
TIME_SYSTEM    = UTC
MEAN_ELEMENT_THEORY = SGP/SGP4

EPOCH          = 2025-12-23T06:00:00.999648
MEAN_MOTION    = 15.79258322
ECCENTRICITY   = .00014529
INCLINATION    = 42.9998
RA_OF_ASC_NODE = 117.6922
ARG_OF_PERICENTER = 276.8407
MEAN_ANOMALY   = 222.1293

EPHEMERIS_TYPE = 0
CLASSIFICATION_TYPE = U
NORAD_CAT_ID   = 67057
ELEMENT_SET_NO = 999
REV_AT_EPOCH   = 191
BSTAR          = -.11849272E-1
MEAN_MOTION_DOT = -.1913222E-1
MEAN_MOTION_DDOT = 0

CCSDS_OMM_VERS = 2.0
CREATION_DATE  = 
ORIGINATOR     = 

OBJECT_NAME    = STARLINK-35767
OBJECT_ID      = 2025-294AE
CENTER_NAME    = EARTH
REF_FRAME      = TEME
TIME_SYSTEM    = UTC
MEAN_ELEMENT_THEORY = SGP/SGP4

EPOCH          = 2025-12-23T06:00:00.999648
MEAN_MOTION    = 15.79200695
ECCENTRICITY   = .00010292
INCLINATION    = 43.0002
RA_OF_ASC_NODE = 117.6969
ARG_OF_PERICENTER = 276.7028
MEAN_ANOMALY   = 220.3376

EPHEMERIS_TYPE = 0
CLASSIFICATION_TYPE = U
NORAD_CAT_ID   = 67058
ELEMENT_SET_NO = 999
REV_AT_EPOCH   = 180
BSTAR          = -.11467777E-1
MEAN_MOTION_DOT = -.1854897E-1
MEAN_MOTION_DDOT = 0

CCSDS_OMM_VERS = 2.0
CREATION_DATE  = 
ORIGINATOR     = 

OBJECT_NAME    = HULIANWANG DIGUI-119
OBJECT_ID      = 2025-295A
CENTER_NAME    = EARTH
REF_FRAME      = TEME
TIME_SYSTEM    = UTC
MEAN_ELEMENT_THEORY = SGP/SGP4

EPOCH          = 2025-12-23T06:58:54.690528
MEAN_MOTION    = 14.24615747
ECCENTRICITY   = .0014023
INCLINATION    = 50.0051
RA_OF_ASC_NODE = 327.7268
ARG_OF_PERICENTER = 283.5891
MEAN_ANOMALY   = 76.3461

EPHEMERIS_TYPE = 0
CLASSIFICATION_TYPE = U
NORAD_CAT_ID   = 67059
ELEMENT_SET_NO = 999
REV_AT_EPOCH   = 162
BSTAR          = .80937568E-4
MEAN_MOTION_DOT = .3E-6
MEAN_MOTION_DDOT = 0

CCSDS_OMM_VERS = 2.0
CREATION_DATE  = 
ORIGINATOR     = 

OBJECT_NAME    = HULIANWANG DIGUI-120
OBJECT_ID      = 2025-295B
CENTER_NAME    = EARTH
REF_FRAME      = TEME
TIME_SYSTEM    = UTC
MEAN_ELEMENT_THEORY = SGP/SGP4

EPOCH          = 2025-12-23T06:53:14.453376
MEAN_MOTION    = 14.25710345
ECCENTRICITY   = .00132036
INCLINATION    = 50.0057
RA_OF_ASC_NODE = 327.7062
ARG_OF_PERICENTER = 284.6359
MEAN_ANOMALY   = 75.3091

EPHEMERIS_TYPE = 0
CLASSIFICATION_TYPE = U
NORAD_CAT_ID   = 67060
ELEMENT_SET_NO = 999
REV_AT_EPOCH   = 162
BSTAR          = -.45131779E-4
MEAN_MOTION_DOT = -.268E-5
MEAN_MOTION_DDOT = 0

