STARLINK-35877          
1 67049U 25294V   25357.25001157 -.01916153  00000+0 -11819-1 0  9999
2 67049  43.0003 117.7373 0001279 277.5383 203.7133 15.79354964  1992
STARLINK-36078          
1 67050U 25294W   25357.25001157 -.01913633  00000+0 -11812-1 0  9994
2 67050  43.0003 117.7312 0001323 275.9054 207.7285 15.79333787  1918
STARLINK-35706          
1 67051U 25294X   25357.25001157 -.01913804  00000+0 -11822-1 0  9996
2 67051  43.0003 117.7252 0001456 276.3236 209.6730 15.79315994  1990
STARLINK-35720          
1 67052U 25294Y   25357.25001157 -.01913655  00000+0 -11821-1 0  9990
2 67052  43.0002 117.7202 0001525 274.5875 213.4012 15.79314400  1987
STARLINK-35739          
1 67053U 25294Z   25357.25001157 -.01913262  00000+0 -11826-1 0  9990
2 67053  43.0004 117.7146 0001510 273.5382 216.6710 15.79300975  1648
STARLINK-35754          
1 67054U 25294AA  25357.25001157 -.01920933  00000+0 -11890-1 0  9995
2 67054  43.0002 117.7086 0001245 276.9866 215.6263 15.79286778  1803
STARLINK-35790          
1 67055U 25294AB  25357.25001157 -.01920092  00000+0 -11894-1 0  9996
2 67055  43.0001 117.7022 0001232 274.0895 220.8474 15.79269159  1996
STARLINK-36143          
1 67056U 25294AC  25357.25001157 -.01919209  00000+0 -11897-1 0  9998
2 67056  43.0001 117.6864 0001151 273.9863 227.1137 15.79252669  1997
STARLINK-36141          
1 67057U 25294AD  25357.25001157 -.01913222  00000+0 -11849-1 0  9995
2 67057  42.9998 117.6922 0001452 276.8407 222.1293 15.79258322  1918
STARLINK-35767          
1 67058U 25294AE  25357.25001157 -.01854897  00000+0 -11468-1 0  9995
2 67058  43.0002 117.6969 0001029 276.7028 220.3376 15.79200695  1806
HULIANWANG DIGUI-119    
1 67059U 25295A   25357.29091077  .00000030  00000+0  80938-4 0  9991
2 67059  50.0051 327.7268 0014023 283.5891  76.3461 14.24615747  1628
HULIANWANG DIGUI-120    
1 67060U 25295B   25357.28697284 -.00000268  00000+0 -45132-4 0  9996
2 67060  50.0057 327.7062 0013203 284.6359  75.3091 14.25710345  1627
